NORAD_CAT_ID,OBJECT_NAME,OBJECT_TYPE,EPOCH,MEAN_MOTION,ECCENTRICITY,INCLINATION,RA_OF_ASC_NODE,ARG_OF_PERICENTER,MEAN_ANOMALY,BSTAR,MEAN_MOTION_DOT,MEAN_MOTION_DDOT,TLE_LINE0,TLE_LINE1,TLE_LINE2,SEMIMAJOR_AXIS,PERIOD,APOGEE,PERIGEE,DECAYED
53937.0,STARLINK-4765,PAYLOAD,2023-09-09 13:05:05,15.08835304,0.0001292,53.2185,68.8311,91.1066,269.0074,3.1095e-05,2.07e-06,0.0,0 STARLINK-4765,1 53937U 22119BD  23252.54519865  .00000207  00000-0  31095-4 0  9990,2 53937  53.2185  68.8311 0001292  91.1066 269.0074 15.08835304 54405,6917.895,95.438,540.654,538.866,0.0
53937.0,STARLINK-4765,PAYLOAD,2023-09-09 19:26:37,15.08839909,0.0001333,53.2178,67.6413,90.0523,270.0622,8.3542e-05,1.042e-05,0.0,0 STARLINK-4765,1 53937U 22119BD  23252.81015486  .00001042  00000-0  83542-4 0  9992,2 53937  53.2178  67.6413 0001333  90.0523 270.0622 15.08839909 54023,6917.881,95.438,540.668,538.824,0.0
53937.0,STARLINK-4765,PAYLOAD,2023-09-10 11:20:28,15.08841521,0.0001304,53.2181,64.6685,85.5974,274.5167,9.1621e-05,1.171e-05,0.0,0 STARLINK-4765,1 53937U 22119BD  23253.47255347  .00001171  00000-0  91621-4 0  9997,2 53937  53.2181  64.6685 0001304  85.5974 274.5167 15.08841521 54545,6917.876,95.437,540.643,538.839,0.0
53937.0,STARLINK-4765,PAYLOAD,2023-09-11 14:22:02,15.08838105,0.0001274,53.2178,59.6135,86.5189,273.5949,8.3801e-05,1.046e-05,0.0,0 STARLINK-4765,1 53937U 22119BD  23254.59863569  .00001046  00000-0  83801-4 0  9994,2 53937  53.2178  59.6135 0001274  86.5189 273.5949 15.08838105 54710,6917.886,95.438,540.633,538.87,0.0
53937.0,STARLINK-4765,PAYLOAD,2023-09-11 17:32:48,15.08840108,0.0001356,53.2179,59.0197,82.3662,277.7484,5.3153e-05,5.58e-06,0.0,0 STARLINK-4765,1 53937U 22119BD  23254.73111549  .00000558  00000-0  53153-4 0  9998,2 53937  53.2179  59.0197 0001356  82.3662 277.7484 15.08840108 54316,6917.88,95.438,540.683,538.807,0.0
53937.0,STARLINK-4765,PAYLOAD,2023-09-12 11:02:02,15.08840689,0.0001335,53.2186,55.7487,78.8261,281.2881,3.3572e-05,2.46e-06,0.0,0 STARLINK-4765,1 53937U 22119BD  23255.45975577  .00000246  00000-0  33572-4 0  9994,2 53937  53.2186  55.7487 0001335  78.8261 281.2881 15.08840689 54844,6917.878,95.438,540.667,538.82,0.0
53937.0,STARLINK-4765,PAYLOAD,2023-09-12 17:23:35,15.08846881,0.0001351,53.2187,54.5589,81.6856,278.4289,2.9887e-05,1.88e-06,0.0,0 STARLINK-4765,1 53937U 22119BD  23255.72471175  .00000188  00000-0  29887-4 0  9998,2 53937  53.2187  54.5589 0001351  81.6856 278.4289 15.08846881 54889,6917.859,95.437,540.659,538.79,0.0
53937.0,STARLINK-4765,PAYLOAD,2023-09-13 10:52:49,15.0884608,0.0001398,53.218,51.2859,82.1363,277.9788,9.8232e-05,1.276e-05,0.0,0 STARLINK-4765,1 53937U 22119BD  23256.45334927  .00001276  00000-0  98232-4 0  9991,2 53937  53.2180  51.2859 0001398  82.1363 277.9788 15.08846080 54571,6917.862,95.437,540.694,538.76,0.0
53937.0,STARLINK-4765,PAYLOAD,2023-09-13 17:14:21,15.08851044,0.0001257,53.2188,50.0975,84.2664,275.8471,0.00012995,1.781e-05,0.0,0 STARLINK-4765,1 53937U 22119BD  23256.71830441  .00001781  00000-0  12995-3 0  9994,2 53937  53.2188  50.0975 0001257  84.2664 275.8471 15.08851044 55030,6917.847,95.437,540.581,538.842,0.0
53937.0,STARLINK-4765,PAYLOAD,2023-09-14 10:43:37,15.08831663,0.0001357,53.2193,46.8267,91.9502,268.1646,-2.0226e-05,-6.1e-06,0.0,0 STARLINK-4765,1 53937U 22119BD  23257.44696406 -.00000610  00000-0 -20226-4 0  9995,2 53937  53.2193  46.8267 0001357  91.9502 268.1646 15.08831663 54729,6917.906,95.438,540.71,538.832,0.0
53937.0,STARLINK-4765,PAYLOAD,2023-09-14 17:05:10,15.08829498,0.0001302,53.219,45.6374,97.7603,262.3537,-3.9843e-05,-9.22e-06,0.0,0 STARLINK-4765,1 53937U 22119BD  23257.71192742 -.00000922  00000-0 -39843-4 0  9990,2 53937  53.2190  45.6374 0001302  97.7603 262.3537 15.08829498 55187,6917.912,95.438,540.678,538.877,0.0
53937.0,STARLINK-4765,PAYLOAD,2023-09-15 02:37:28,15.08838868,0.0001221,53.219,43.8529,97.7261,262.387,4.1413e-05,3.71e-06,0.0,0 STARLINK-4765,1 53937U 22119BD  23258.10936057  .00000371  00000-0  41413-4 0  9991,2 53937  53.2190  43.8529 0001221  97.7261 262.3870 15.08838868 54820,6917.884,95.438,540.594,538.904,0.0
53937.0,STARLINK-4765,PAYLOAD,2023-09-15 13:45:10,15.08843634,0.0001166,53.2181,41.7704,98.8964,261.216,9.5059e-05,1.225e-05,0.0,0 STARLINK-4765,1 53937U 22119BD  23258.57303659  .00001225  00000-0  95059-4 0  9992,2 53937  53.2181  41.7704 0001166  98.8964 261.2160 15.08843634 55314,6917.869,95.437,540.541,538.928,0.0
53937.0,STARLINK-4765,PAYLOAD,2023-09-15 16:55:56,15.08848627,0.0001196,53.2183,41.1766,100.1402,259.9725,0.00018163,2.605e-05,0.0,0 STARLINK-4765,1 53937U 22119BD  23258.70551453  .00002605  00000-0  18163-3 0  9997,2 53937  53.2183  41.1766 0001196 100.1402 259.9725 15.08848627 54918,6917.854,95.437,540.546,538.892,0.0
53937.0,STARLINK-4765,PAYLOAD,2023-09-16 08:49:48,15.08837853,0.0001207,53.2182,38.2037,108.1585,251.9539,0.0002566,3.798e-05,0.0,0 STARLINK-4765,1 53937U 22119BD  23259.36792250  .00003798  00000-0  25660-3 0  9996,2 53937  53.2182  38.2037 0001207 108.1585 251.9539 15.08837853 55014,6917.887,95.438,540.587,538.917,0.0
53937.0,STARLINK-4765,PAYLOAD,2023-09-16 13:35:58,15.08833759,0.0001165,53.218,37.3112,106.5651,253.547,7.3915e-05,8.89e-06,0.0,0 STARLINK-4765,1 53937U 22119BD  23259.56664417  .00000889  00000-0  73915-4 0  9996,2 53937  53.2180  37.3112 0001165 106.5651 253.5470 15.08833759 55467,6917.899,95.438,540.57,538.959,0.0
53937.0,STARLINK-4765,PAYLOAD,2023-09-17 10:15:58,15.08845484,0.0001019,53.2182,33.4447,87.5682,272.5427,0.00014574,2.033e-05,0.0,0 STARLINK-4765,1 53937U 22119BD  23260.42776198  .00002033  00000-0  14574-3 0  9991,2 53937  53.2182  33.4447 0001019  87.5682 272.5427 15.08845484 55592,6917.864,95.437,540.434,539.024,0.0
53937.0,STARLINK-4765,PAYLOAD,2023-09-17 16:37:30,15.08857134,0.0001094,53.2182,32.2561,78.9831,281.1284,0.00044234,6.762e-05,0.0,0 STARLINK-4765,1 53937U 22119BD  23260.69271745  .00006762  00000-0  44234-3 0  9997,2 53937  53.2182  32.2561 0001094  78.9831 281.1284 15.08857134 55210,6917.828,95.436,540.45,538.936,0.0
53937.0,STARLINK-4765,PAYLOAD,2023-09-18 02:09:49,15.08849011,0.0001048,53.2187,30.4716,82.1253,277.9858,0.00027402,4.077e-05,0.0,0 STARLINK-4765,1 53937U 22119BD  23261.09015923  .00004077  00000-0  27402-3 0  9991,2 53937  53.2187  30.4716 0001048  82.1253 277.9858 15.08849011 55272,6917.853,95.437,540.443,538.993,0.0
53937.0,STARLINK-4765,PAYLOAD,2023-09-18 13:17:31,15.08840131,0.0001082,53.2181,28.3893,86.8183,273.2933,6.4068e-05,7.32e-06,0.0,0 STARLINK-4765,1 53937U 22119BD  23261.55384192  .00000732  00000-0  64068-4 0  9993,2 53937  53.2181  28.3893 0001082  86.8183 273.2933 15.08840131 55760,6917.88,95.438,540.494,538.996,0.0
53937.0,STARLINK-4765,PAYLOAD,2023-09-18 14:52:55,15.08844357,0.0001591,53.2188,28.0935,73.7345,286.3822,0.00016593,2.354e-05,0.0,0 STARLINK-4765,1 53937U 22119BD  23261.62008310  .00002354  00000-0  16593-3 0  9997,2 53937  53.2188  28.0935 0001591  73.7345 286.3822 15.08844357 55352,6917.867,95.437,540.833,538.631,0.0
53937.0,STARLINK-4765,PAYLOAD,2023-09-18 19:39:03,15.08861558,0.0001319,53.219,27.2016,65.7694,294.3436,0.00041308,6.296e-05,0.0,0 STARLINK-4765,1 53937U 22119BD  23261.81879381  .00006296  00000-0  41308-3 0  9993,2 53937  53.2190  27.2016 0001319  65.7694 294.3436 15.08861558 55804,6917.814,95.436,540.592,538.767,0.0
53937.0,STARLINK-4765,PAYLOAD,2023-09-19 17:54:27,15.08876351,0.0001391,53.2181,23.0363,94.5978,265.5173,0.0010328,0.00016204,0.0,0 STARLINK-4765,1 53937U 22119BD  23262.74614695  .00016204  00000-0  10328-2 0  9998,2 53937  53.2181  23.0363 0001391  94.5978 265.5173 15.08876351 55522,6917.769,95.435,540.597,538.672,0.0
53937.0,STARLINK-4765,PAYLOAD,2023-09-20 08:12:56,15.08821463,0.0001102,53.2208,20.3603,126.1797,233.9297,-0.00031879,-5.355e-05,0.0,0 STARLINK-4765,1 53937U 22119BD  23263.34232129 -.00005355  00000-0 -31879-3 0  9995,2 53937  53.2208  20.3603 0001102 126.1797 233.9297 15.08821463 55610,6917.937,95.439,540.564,539.04,0.0
53937.0,STARLINK-4765,PAYLOAD,2023-09-20 14:34:29,15.08805478,0.0001195,53.2184,19.1726,106.8797,253.2326,0.00084205,0.00013126,0.0,0 STARLINK-4765,1 53937U 22119BD  23263.60729116  .00013126  00000-0  84205-3 0  9995,2 53937  53.2184  19.1726 0001195 106.8797 253.2326 15.08805478 56079,6917.986,95.44,540.678,539.024,0.0
53937.0,STARLINK-4765,PAYLOAD,2023-09-21 08:03:44,15.08848574,0.0001071,53.2184,15.9009,104.5353,255.5758,0.0015179,0.00023958,0.0,0 STARLINK-4765,1 53937U 22119BD  23264.33593472  .00023958  00000-0  15179-2 0  9997,2 53937  53.2184  15.9009 0001071 104.5353 255.5758 15.08848574 55766,6917.854,95.437,540.46,538.978,0.0
53937.0,STARLINK-4765,PAYLOAD,2023-09-21 12:49:53,15.0886599,0.0001171,53.2183,15.0104,103.2054,256.9069,0.0017244,0.00027282,0.0,0 STARLINK-4765,1 53937U 22119BD  23264.53465087  .00027282  00000-0  17244-2 0  9998,2 53937  53.2183  15.0104 0001171 103.2054 256.9069 15.08865990 56219,6917.801,95.436,540.476,538.856,0.0
53937.0,STARLINK-4765,PAYLOAD,2023-09-21 23:57:35,15.08866006,0.0001359,53.218,12.9277,75.9189,284.1954,0.0010186,0.00015972,0.0,0 STARLINK-4765,1 53937U 22119BD  23264.99832482  .00015972  00000-0  10186-2 0  9996,2 53937  53.2180  12.9277 0001359  75.9189 284.1954 15.08866006 55860,6917.801,95.436,540.606,538.726,0.0
53937.0,STARLINK-4765,PAYLOAD,2023-09-22 11:05:17,15.08857474,0.0001331,53.2185,10.8472,92.0007,268.1138,0.00043691,6.676e-05,0.0,0 STARLINK-4765,1 53937U 22119BD  23265.46200358  .00006676  00000-0  43691-3 0  9999,2 53937  53.2185  10.8472 0001331  92.0007 268.1138 15.08857474 55931,6917.827,95.436,540.613,538.771,0.0
53937.0,STARLINK-4765,PAYLOAD,2023-09-22 12:40:40,15.08853713,0.000117,53.2184,10.55,80.5216,279.5909,0.0021212,0.00033645,0.0,0 STARLINK-4765,1 53937U 22119BD  23265.52824535  .00033645  00000-0  21212-2 0  9995,2 53937  53.2184  10.5500 0001170  80.5216 279.5909 15.08853713 56366,6917.838,95.437,540.513,538.894,0.0
